{
    "links": {
        "self": "http://www.neowsapp.com/rest/v1/neo/3182831?api_key=iIulBulltgU6a56xZRHN4H3l9WmuAYTsLGpBGhQ2"
    },
    "id": "3182831",
    "neo_reference_id": "3182831",
    "name": "(2004 KF17)",
    "designation": "2004 KF17",
    "nasa_jpl_url": "http://ssd.jpl.nasa.gov/sbdb.cgi?sstr=3182831",
    "absolute_magnitude_h": 26.1,
    "estimated_diameter": {
        "kilometers": {
            "estimated_diameter_min": 0.0160160338,
            "estimated_diameter_max": 0.0358129403
        },
        "meters": {
            "estimated_diameter_min": 16.0160337979,
            "estimated_diameter_max": 35.8129403019
        },
        "miles": {
            "estimated_diameter_min": 0.0099518989,
            "estimated_diameter_max": 0.0222531225
        },
        "feet": {
            "estimated_diameter_min": 52.5460443254,
            "estimated_diameter_max": 117.4965270602
        }
    },
    "is_potentially_hazardous_asteroid": false,
    "close_approach_data": [
        {
            "close_approach_date": "2004-05-31",
            "close_approach_date_full": "2004-May-31 15:45",
            "epoch_date_close_approach": 1086018300000,
            "relative_velocity": {
                "kilometers_per_second": "11.3332330038",
                "kilometers_per_hour": "40799.6388136055",
                "miles_per_hour": "25351.3089061539"
            },
            "miss_distance": {
                "astronomical": "0.003401084",
                "lunar": "1.323021676",
                "kilometers": "508794.92209108",
                "miles": "316150.504493704"
            },
            "orbiting_body": "Moon"
        },
        {
            "close_approach_date": "2004-05-31",
            "close_approach_date_full": "2004-May-31 21:10",
            "epoch_date_close_approach": 1086037800000,
            "relative_velocity": {
                "kilometers_per_second": "11.3993650544",
                "kilometers_per_hour": "41037.7141959332",
                "miles_per_hour": "25499.2396902453"
            },
            "miss_distance": {
                "astronomical": "0.0046563189",
                "lunar": "1.8113080521",
                "kilometers": "696575.389480743",
                "miles": "432831.8763425334"
            },
            "orbiting_body": "Earth"
        }
    ],
    "orbital_data": {
        "orbit_id": "8",
        "orbit_determination_date": "2017-04-06 09:12:42",
        "first_observation_date": "2004-05-28",
        "last_observation_date": "2004-05-31",
        "data_arc_in_days": 3,
        "observations_used": 41,
        "orbit_uncertainty": "8",
        "minimum_orbit_intersection": ".0046225",
        "jupiter_tisserand_invariant": "3.825",
        "epoch_osculation": "2453155.5",
        "eccentricity": ".4773107904261629",
        "semi_major_axis": "1.855712660348753",
        "inclination": "13.33108021947614",
        "ascending_node_longitude": "70.07271656466531",
        "orbital_period": "923.3461078876823",
        "perihelion_distance": ".9699609836338521",
        "perihelion_argument": "211.9525824100018",
        "aphelion_distance": "2.741464337063654",
        "perihelion_time": "2453183.165999533252",
        "mean_anomaly": "349.213405734979",
        "mean_motion": ".3898863025735428",
        "equinox": "J2000",
        "orbit_class": {
            "orbit_class_type": "APO",
            "orbit_class_description": "Near-Earth asteroid orbits which cross the Earth’s orbit similar to that of 1862 Apollo",
            "orbit_class_range": "a (semi-major axis) > 1.0 AU; q (perihelion) < 1.017 AU"
        }
    },
    "is_sentry_object": false
}